{
    "links": {
        "self": "http://www.neowsapp.com/rest/v1/neo/3879298?api_key=iIulBulltgU6a56xZRHN4H3l9WmuAYTsLGpBGhQ2"
    },
    "id": "3879298",
    "neo_reference_id": "3879298",
    "name": "(2019 UR2)",
    "designation": "2019 UR2",
    "nasa_jpl_url": "http://ssd.jpl.nasa.gov/sbdb.cgi?sstr=3879298",
    "absolute_magnitude_h": 22.2,
    "estimated_diameter": {
        "kilometers": {
            "estimated_diameter_min": 0.096506147,
            "estimated_diameter_max": 0.2157943048
        },
        "meters": {
            "estimated_diameter_min": 96.5061469579,
            "estimated_diameter_max": 215.7943048444
        },
        "miles": {
            "estimated_diameter_min": 0.059966121,
            "estimated_diameter_max": 0.134088323
        },
        "feet": {
            "estimated_diameter_min": 316.6212271853,
            "estimated_diameter_max": 707.9865871058
        }
    },
    "is_potentially_hazardous_asteroid": false,
    "close_approach_data": [
        {
            "close_approach_date": "2019-11-18",
            "close_approach_date_full": "2019-Nov-18 06:58",
            "epoch_date_close_approach": 1574060280000,
            "relative_velocity": {
                "kilometers_per_second": "13.4488614223",
                "kilometers_per_hour": "48415.9011201634",
                "miles_per_hour": "30083.7581154704"
            },
            "miss_distance": {
                "astronomical": "0.046132885",
                "lunar": "17.945692265",
                "kilometers": "6901381.33295495",
                "miles": "4288319.50828031"
            },
            "orbiting_body": "Earth"
        },
        {
            "close_approach_date": "2181-02-22",
            "close_approach_date_full": "2181-Feb-22 15:08",
            "epoch_date_close_approach": 6663136080000,
            "relative_velocity": {
                "kilometers_per_second": "13.3398452131",
                "kilometers_per_hour": "48023.4427671056",
                "miles_per_hour": "29839.8997571496"
            },
            "miss_distance": {
                "astronomical": "0.1512656792",
                "lunar": "58.8423492088",
                "kilometers": "22629023.412423304",
                "miles": "14061023.1301734352"
            },
            "orbiting_body": "Earth"
        },
        {
            "close_approach_date": "2186-08-02",
            "close_approach_date_full": "2186-Aug-02 21:37",
            "epoch_date_close_approach": 6834836220000,
            "relative_velocity": {
                "kilometers_per_second": "6.8973994845",
                "kilometers_per_hour": "24830.638144146",
                "miles_per_hour": "15428.7929068445"
            },
            "miss_distance": {
                "astronomical": "1.8248016672",
                "lunar": "709.8478485408",
                "kilometers": "272986442.585568864",
                "miles": "169625909.7647197632"
            },
            "orbiting_body": "Juptr"
        },
        {
            "close_approach_date": "2198-04-23",
            "close_approach_date_full": "2198-Apr-23 20:36",
            "epoch_date_close_approach": 7204797360000,
            "relative_velocity": {
                "kilometers_per_second": "5.1583343434",
                "kilometers_per_hour": "18570.0036362873",
                "miles_per_hour": "11538.6780927809"
            },
            "miss_distance": {
                "astronomical": "1.4684094113",
                "lunar": "571.2112609957",
                "kilometers": "219670920.218433931",
                "miles": "136497180.3653770078"
            },
            "orbiting_body": "Juptr"
        }
    ],
    "orbital_data": {
        "orbit_id": "18",
        "orbit_determination_date": "2020-05-10 06:01:06",
        "first_observation_date": "2019-10-19",
        "last_observation_date": "2019-11-19",
        "data_arc_in_days": 31,
        "observations_used": 98,
        "orbit_uncertainty": "6",
        "minimum_orbit_intersection": ".00377111",
        "jupiter_tisserand_invariant": "3.157",
        "epoch_osculation": "2459000.5",
        "eccentricity": ".6507731070021642",
        "semi_major_axis": "2.437867158137356",
        "inclination": "10.46244322606573",
        "ascending_node_longitude": "228.8501697114345",
        "orbital_period": "1390.315876140398",
        "perihelion_distance": ".8513687731777726",
        "perihelion_argument": "231.0904284087248",
        "aphelion_distance": "4.024365543096939",
        "perihelion_time": "2458837.705801925456",
        "mean_anomaly": "42.15294690407287",
        "mean_motion": ".258933963265515",
        "equinox": "J2000",
        "orbit_class": {
            "orbit_class_type": "APO",
            "orbit_class_description": "Near-Earth asteroid orbits which cross the Earth’s orbit similar to that of 1862 Apollo",
            "orbit_class_range": "a (semi-major axis) > 1.0 AU; q (perihelion) < 1.017 AU"
        }
    },
    "is_sentry_object": false
}